{
"type": "FeatureCollection",
"crs": { "type": "name", "properties": { "name": "urn:ogc:def:crs:OGC:1.3:CRS84" } },
"features": [
{ "type": "Feature", "properties": { "shapeName": "Brunei", "shapeISO": "BRN", "shapeID": "51999400B40896605223228", "shapeGroup": "BRN", "shapeType": "ADM0" }, "geometry": { "type": "MultiPolygon", "coordinates": [ [ [ [ 115.051658464466641, 4.796395844992276 ], [ 115.053572072493239, 4.802116541345356 ], [ 115.05261526847994, 4.808027876885035 ], [ 115.05031893866817, 4.813367104208567 ], [ 115.046683083957191, 4.815273960125182 ], [ 115.043812671917294, 4.81660875638903 ], [ 115.039985455864212, 4.818324920059069 ], [ 115.036732322039143, 4.820041078333134 ], [ 115.03462735356959, 4.816227386284879 ], [ 115.034435993126635, 4.814129847114827 ], [ 115.035584157582889, 4.810888182343774 ], [ 115.037880487394659, 4.805739623884563 ], [ 115.038645930065627, 4.799256199014394 ], [ 115.043238589689167, 4.796205154544282 ], [ 115.051658464466641, 4.796395844992276 ] ] ], [ [ [ 115.038333764591584, 4.88381929362555 ], [ 115.04084196838221, 4.885318750360113 ], [ 115.044855094986701, 4.887717875379678 ], [ 115.047965268082748, 4.889567194470487 ], [ 115.050322980221381, 4.891166600957888 ], [ 115.051627246300427, 4.8930159110555 ], [ 115.051878067219036, 4.89481523413582 ], [ 115.051928230503449, 4.895664912705627 ], [ 115.050724292791983, 4.896814476506961 ], [ 115.046711166187379, 4.897614171656755 ], [ 115.0441026340294, 4.896864457228958 ], [ 115.040992460933353, 4.89601478045779 ], [ 115.037832123653629, 4.894765252514446 ], [ 115.035173427311861, 4.893515722772463 ], [ 115.033267191927393, 4.89221620961041 ], [ 115.032213745867693, 4.890266935370846 ], [ 115.03251473007083, 4.887917801865115 ], [ 115.034119981252161, 4.885418714502123 ], [ 115.03462162219023, 4.88441907667908 ], [ 115.036126544104832, 4.883419437956718 ], [ 115.038333764591584, 4.88381929362555 ] ] ], [ [ [ 115.144330669524834, 4.892146314300987 ], [ 115.143105960171965, 4.895074901685405 ], [ 115.141758780243549, 4.897515381130006 ], [ 115.138574536285887, 4.900443945131997 ], [ 115.132818403946203, 4.904348677349617 ], [ 115.123020730922008, 4.904348677349617 ], [ 115.11567247660355, 4.902640360264456 ], [ 115.111753407393849, 4.900565968744502 ], [ 115.109426460163036, 4.898247523704299 ], [ 115.105874804478731, 4.896173118694549 ], [ 115.102117396500716, 4.892956557599121 ], [ 115.099452430085648, 4.891707025159121 ], [ 115.098982141312831, 4.889988912658225 ], [ 115.099922717959089, 4.888192700332922 ], [ 115.101882252563996, 4.886084097703019 ], [ 115.104547219878327, 4.885303130934801 ], [ 115.105566177836863, 4.883428809791781 ], [ 115.105252651688602, 4.882335452719019 ], [ 115.104312075042344, 4.880383025456297 ], [ 115.10407693110551, 4.878821079329384 ], [ 115.104547219878327, 4.87577527430949 ], [ 115.106741898419955, 4.87241706279724 ], [ 115.110817730254098, 4.871167491686435 ], [ 115.112620502234449, 4.8709331967097 ], [ 115.114893562088241, 4.869136933123002 ], [ 115.119047775234662, 4.864997699084597 ], [ 115.120928928527292, 4.863123320385 ], [ 115.125631810859431, 4.8617956323626 ], [ 115.133156424029835, 4.861873732187064 ], [ 115.135351102571349, 4.863045221459856 ], [ 115.138799883008232, 4.862967122534712 ], [ 115.140289129739585, 4.862732824860018 ], [ 115.142327045656657, 4.863982411259315 ], [ 115.145148774696281, 4.865388193710203 ], [ 115.146951546676632, 4.866325380811702 ], [ 115.148597556032428, 4.865075798009741 ], [ 115.149224606530424, 4.863279519134551 ], [ 115.147813742010612, 4.861327036113892 ], [ 115.144129816737745, 4.859765045920199 ], [ 115.142483808281213, 4.858905949649909 ], [ 115.141072942862138, 4.859530747346184 ], [ 115.137075492340159, 4.860155544143083 ], [ 115.13738901848842, 4.856875354214253 ], [ 115.136448441842163, 4.854766652658952 ], [ 115.135978153069345, 4.85086163265828 ], [ 115.135586246508183, 4.847112791622067 ], [ 115.134332144612813, 4.844144944333777 ], [ 115.133156424029835, 4.84719089324517 ], [ 115.132999660506016, 4.856562954916512 ], [ 115.131823939922924, 4.857734453182502 ], [ 115.126023718319971, 4.857265854235834 ], [ 115.122731699608266, 4.858515451426968 ], [ 115.118263961212847, 4.860467942541561 ], [ 115.113952985441983, 4.861483234863442 ], [ 115.11246373871063, 4.857265854235834 ], [ 115.113404315356888, 4.854454252461835 ], [ 115.114266510690982, 4.85289224608033 ], [ 115.113717841505263, 4.851330236101546 ], [ 115.110660967629656, 4.848909113664718 ], [ 115.107956809659072, 4.847117673142122 ], [ 115.100363613290142, 4.848704098815176 ], [ 115.09766925343331, 4.844554976730819 ], [ 115.094974893576591, 4.84187023782124 ], [ 115.093872655698533, 4.83845328079434 ], [ 115.095342306202497, 4.83418206045377 ], [ 115.099628788038217, 4.831131172465689 ], [ 115.103792798399013, 4.827348051971057 ], [ 115.10905904753713, 4.824297133406048 ], [ 115.111018582141924, 4.821490275555846 ], [ 115.108569164335563, 4.819659710027622 ], [ 115.104160211924295, 4.821368238453488 ], [ 115.100853497391086, 4.823320835688037 ], [ 115.09766925343331, 4.825273428426044 ], [ 115.091668179043268, 4.830276920843289 ], [ 115.089341231812455, 4.834060025150109 ], [ 115.090443469690399, 4.836744795535935 ], [ 115.092280533719759, 4.841626169911876 ], [ 115.09142323699291, 4.844554976730819 ], [ 115.084687337350829, 4.844677010235898 ], [ 115.078808733536334, 4.84187023782124 ], [ 115.07623684425505, 4.840283795061168 ], [ 115.078196378859843, 4.835890552007413 ], [ 115.079053675586692, 4.83491427137659 ], [ 115.075257076952653, 4.833449848631631 ], [ 115.070358241339818, 4.83418206045377 ], [ 115.067908822634081, 4.83283967121389 ], [ 115.064847050151343, 4.829544705423871 ], [ 115.059121535230702, 4.825189527974374 ], [ 115.056059762747964, 4.816418071336955 ], [ 115.058930174787747, 4.812222987600819 ], [ 115.059886978801046, 4.806311688034043 ], [ 115.059504257015874, 4.800400337205872 ], [ 115.061226503700254, 4.795823772748975 ], [ 115.064288277082369, 4.790865793221826 ], [ 115.06830685357852, 4.787433324688209 ], [ 115.072134068732339, 4.78667055210434 ], [ 115.077109450141052, 4.786479858059067 ], [ 115.081319387080157, 4.787051938396303 ], [ 115.086103407146538, 4.787624017834219 ], [ 115.08418979911994, 4.782665978951798 ], [ 115.083424355549596, 4.780568336359693 ], [ 115.080936665294985, 4.778661382416885 ], [ 115.078831696825432, 4.780759031304285 ], [ 115.070985904276085, 4.782665978951798 ], [ 115.064479637525324, 4.784763615248721 ], [ 115.059121535230702, 4.785717084575822 ], [ 115.057207927204104, 4.785907777721832 ], [ 115.053189350708067, 4.785526390530549 ], [ 115.048596691983789, 4.783619450976914 ], [ 115.041133620320352, 4.779042774104767 ], [ 115.035201435797717, 4.773131187654258 ], [ 115.032522385100037, 4.766647454316626 ], [ 115.027738365033542, 4.757112439987168 ], [ 115.026590200577402, 4.753870505419513 ], [ 115.025250674778931, 4.748912222820877 ], [ 115.025059314335977, 4.745098135070918 ], [ 115.026972922362575, 4.739949082883925 ], [ 115.030034694845313, 4.733083620612661 ], [ 115.032713745542992, 4.726408800226011 ], [ 115.031756941529693, 4.717826793871495 ], [ 115.029460612617186, 4.710579683605545 ], [ 115.032139663314865, 4.701616047242851 ], [ 115.034435993126635, 4.69551308056424 ], [ 115.036540961596188, 4.68750285597207 ], [ 115.039373101187721, 4.666851310139918 ], [ 115.040720281116137, 4.660992171251735 ], [ 115.042557345145383, 4.655987452159252 ], [ 115.042924757771402, 4.650738561735295 ], [ 115.041577577842986, 4.646832386105757 ], [ 115.04023039791457, 4.632184032567125 ], [ 115.041944990469005, 4.621197568213233 ], [ 115.043292170397422, 4.613018645194359 ], [ 115.046353942880273, 4.6055720814864 ], [ 115.054069609824751, 4.591044953861569 ], [ 115.05872350518564, 4.585795582300307 ], [ 115.063140111726852, 4.575159384098356 ], [ 115.062566029498726, 4.568483066340491 ], [ 115.063140111726852, 4.560280648533137 ], [ 115.064479637525324, 4.555130245564442 ], [ 115.065819163323795, 4.549407532032035 ], [ 115.068689574464315, 4.543494013837744 ], [ 115.071177265618417, 4.53891577304455 ], [ 115.074621759886327, 4.533383692403504 ], [ 115.076344006570707, 4.524036289243384 ], [ 115.076918088798834, 4.510110341319262 ], [ 115.07844897504026, 4.499427240774594 ], [ 115.08383004062398, 4.490689874737996 ], [ 115.085789575228773, 4.481044312145343 ], [ 115.087381697207661, 4.473230091195774 ], [ 115.090565941165323, 4.4641947950538 ], [ 115.092892888396136, 4.456258294184977 ], [ 115.091790649618815, 4.449786930122798 ], [ 115.089218761236907, 4.436233511967032 ], [ 115.09105582436689, 4.428418815276132 ], [ 115.091771054290803, 4.422582159439173 ], [ 115.092319724375784, 4.419378085430367 ], [ 115.093887351520152, 4.415236211881734 ], [ 115.096082030061666, 4.409843927255508 ], [ 115.096709081459039, 4.405702000646841 ], [ 115.096160412273321, 4.400700398604556 ], [ 115.094749546854132, 4.398043283270965 ], [ 115.090595333707711, 4.389837427355417 ], [ 115.089576375749175, 4.379208756478988 ], [ 115.099138903937273, 4.369561739682581 ], [ 115.104650095125862, 4.364188662776598 ], [ 115.108569164335563, 4.362356923633172 ], [ 115.112610704120812, 4.361868459561833 ], [ 115.119346603762779, 4.362234807390507 ], [ 115.124000498224518, 4.363822315847244 ], [ 115.128776864161068, 4.365043472878028 ], [ 115.136125118479526, 4.365898282080082 ], [ 115.142616076970398, 4.367852128472975 ], [ 115.146167732654817, 4.369195394551866 ], [ 115.151058436597623, 4.371337174071357 ], [ 115.157636463851759, 4.367759588234435 ], [ 115.163018486314172, 4.363883851058915 ], [ 115.16810150667925, 4.360008093198985 ], [ 115.172287524349827, 4.35970995714888 ], [ 115.177370545614281, 4.360306229249147 ], [ 115.183350570472498, 4.360306229249147 ], [ 115.189629596528675, 4.358517412048968 ], [ 115.197403628574648, 4.357026728200992 ], [ 115.206672666610302, 4.356728590352191 ], [ 115.216539707941251, 4.357026728200992 ], [ 115.226406748372824, 4.35881554899845 ], [ 115.234479782516019, 4.35881554899845 ], [ 115.241356810968114, 4.355834178604482 ], [ 115.24584182983665, 4.346293714383478 ], [ 115.249429844212045, 4.339436431446188 ], [ 115.253316860684663, 4.337349420639327 ], [ 115.261090892730522, 4.336753130552609 ], [ 115.272153938853307, 4.335858694523154 ], [ 115.282618981680685, 4.3334735260824 ], [ 115.292486023011634, 4.329597612639759 ], [ 115.298466047869852, 4.322442027277759 ], [ 115.307735085905506, 4.312006678265618 ], [ 115.315808119149438, 4.305447242696118 ], [ 115.320891140413892, 4.30067670796376 ], [ 115.328067170063946, 4.299484070233689 ], [ 115.335542200911959, 4.301869344794454 ], [ 115.341223224572218, 4.304552769794554 ], [ 115.349595259913372, 4.309621435181157 ], [ 115.357070290761385, 4.315584528503223 ], [ 115.362751314421644, 4.324827229892776 ], [ 115.365741326401121, 4.332877233297722 ], [ 115.362751314421644, 4.341523437756507 ], [ 115.358864297949026, 4.350169542390518 ], [ 115.352585271892849, 4.35970995714888 ], [ 115.346306245836672, 4.36984651540439 ], [ 115.341223224572218, 4.375511002330938 ], [ 115.333150191328286, 4.385349220390253 ], [ 115.319695135622055, 4.391013590404896 ], [ 115.30982809429122, 4.397572281335783 ], [ 115.299662052661688, 4.407708325179101 ], [ 115.288300005341057, 4.424700795805109 ], [ 115.281123975691003, 4.436028891919875 ], [ 115.279329968503362, 4.445568207706685 ], [ 115.279628969701207, 4.454213105450492 ], [ 115.280226972097125, 4.461963616627656 ], [ 115.279030967305403, 4.472993049689535 ], [ 115.277834961614303, 4.482233798650952 ], [ 115.278731966107443, 4.493262925943327 ], [ 115.277834961614303, 4.502205339205091 ], [ 115.270658931964249, 4.509359190674161 ], [ 115.268565923578535, 4.513234164325297 ], [ 115.268565923578535, 4.521580191272847 ], [ 115.272452940051153, 4.534695180937888 ], [ 115.273047593371757, 4.548438481950427 ], [ 115.274394773300173, 4.556007724876622 ], [ 115.275129598552212, 4.559059816157628 ], [ 115.27917113833746, 4.563698969831648 ], [ 115.282355382295123, 4.567605603216066 ], [ 115.285417154777974, 4.57236678320055 ], [ 115.287866573483598, 4.582011128111105 ], [ 115.289703636613581, 4.589946251218578 ], [ 115.291295758592469, 4.597637131948147 ], [ 115.292030583844394, 4.607891511284265 ], [ 115.292275525894865, 4.614361459813551 ], [ 115.292030583844394, 4.620220985410185 ], [ 115.289711291642902, 4.626278828605109 ], [ 115.286840879603005, 4.632763868657662 ], [ 115.281674137751338, 4.638295179478973 ], [ 115.27803828304036, 4.641156184610281 ], [ 115.275741953228589, 4.64287278265283 ], [ 115.270766572719253, 4.646305966147452 ], [ 115.267896160679356, 4.648022551599524 ], [ 115.264451666411333, 4.650692786243155 ], [ 115.260241729472341, 4.652981551857181 ], [ 115.259859007687169, 4.657368331483383 ], [ 115.261963976156608, 4.663662357331987 ], [ 115.264834388196505, 4.67033777936507 ], [ 115.266173913994976, 4.674533725551044 ], [ 115.268087522021574, 4.682925543279225 ], [ 115.26732207845123, 4.686358530721691 ], [ 115.264260305968378, 4.689600780951309 ], [ 115.262155336599562, 4.692080138087931 ], [ 115.256797235204317, 4.695703798891259 ], [ 115.253352740936293, 4.698373852771113 ], [ 115.249908246668269, 4.701234614186149 ], [ 115.248185999084626, 4.703523213425626 ], [ 115.247229195071327, 4.705430375111746 ], [ 115.247229195071327, 4.708291105949854 ], [ 115.247994638641671, 4.711533254556116 ], [ 115.250099607111224, 4.716110379290626 ], [ 115.252778657808904, 4.720306050284023 ], [ 115.255840431191018, 4.724692407228872 ], [ 115.257945399660571, 4.729269444729141 ], [ 115.257562677875399, 4.732130078440434 ], [ 115.256223152076814, 4.73518140799564 ], [ 115.252970019151121, 4.739567669612313 ], [ 115.246272391058028, 4.745670249582417 ], [ 115.241205157392187, 4.75155918750653 ], [ 115.238388326060431, 4.755098628598887 ], [ 115.235816437678523, 4.758882148392502 ], [ 115.233979373649277, 4.761933359237162 ], [ 115.232264781094841, 4.765228652380472 ], [ 115.23165242641835, 4.77108691083231 ], [ 115.232999606346766, 4.777555347601265 ], [ 115.234346786275182, 4.784389855207678 ], [ 115.235081611527221, 4.790125907484708 ], [ 115.235571495628051, 4.795495784602849 ], [ 115.235444125545996, 4.79985999933956 ], [ 115.233249447004482, 4.80314046446091 ], [ 115.229643903943042, 4.808061132914986 ], [ 115.224862639399362, 4.813684710580958 ], [ 115.214124390628172, 4.822979131981413 ], [ 115.19727239320639, 4.834694608369546 ], [ 115.19170731554027, 4.838053006940754 ], [ 115.185750330413498, 4.844535451549916 ], [ 115.184652991142684, 4.847581397763349 ], [ 115.184104321057589, 4.853595148996988 ], [ 115.182541592520579, 4.858954762152621 ], [ 115.183276417772504, 4.861761464420113 ], [ 115.183031475722032, 4.863958005457619 ], [ 115.180704528491219, 4.86725280397377 ], [ 115.177520285432934, 4.869693385041728 ], [ 115.17372368679878, 4.870791643419636 ], [ 115.166865316581152, 4.871401786663171 ], [ 115.161231654817129, 4.871401786663171 ], [ 115.155965405679012, 4.872622070452223 ], [ 115.154618225750596, 4.874818576416203 ], [ 115.154495754275672, 4.876893047076521 ], [ 115.154373283700124, 4.883848580047982 ], [ 115.152903633196161, 4.886655177994101 ], [ 115.152658691145689, 4.889217713426774 ], [ 115.151433981792934, 4.892146314300987 ], [ 115.14898456398646, 4.896173118694549 ], [ 115.141758780243549, 4.903982610109438 ], [ 115.142738547545946, 4.901054061395882 ], [ 115.144698082150853, 4.898979665379329 ], [ 115.146045262079269, 4.896539190431326 ], [ 115.146657616755647, 4.894586804537425 ], [ 115.147025029381666, 4.890804040174373 ], [ 115.144330669524834, 4.892146314300987 ] ] ], [ [ [ 115.098159136634877, 5.011719797630576 ], [ 115.092525474870854, 5.013549835256754 ], [ 115.087994051884039, 5.015379867486956 ], [ 115.085177220552396, 5.016965891163011 ], [ 115.080405754122353, 5.018756873930613 ], [ 115.077348880246632, 5.017507578911705 ], [ 115.075938015726933, 5.016336362133472 ], [ 115.075624490477935, 5.014306248734442 ], [ 115.076016397039098, 5.0111829851067 ], [ 115.078054312956283, 5.008137788927854 ], [ 115.082208526102704, 5.003374760836607 ], [ 115.086284357936847, 4.999236363167654 ], [ 115.090673715019989, 4.995956860320916 ], [ 115.095219835626949, 4.994629438497839 ], [ 115.101803871251718, 4.993926683969335 ], [ 115.111263524192395, 4.994639198839991 ], [ 115.1204488425401, 4.994273181062511 ], [ 115.125837562253764, 4.994395186688564 ], [ 115.128164509484577, 4.996347278504174 ], [ 115.127062271606633, 4.99829936402449 ], [ 115.125347678152934, 5.001227481962758 ], [ 115.123510615022951, 5.005253622656596 ], [ 115.121918493044063, 5.009889754608537 ], [ 115.120693783691195, 5.01208580551554 ], [ 115.11530506397753, 5.012695818357372 ], [ 115.109671402213507, 5.011841799659351 ], [ 115.104650095125862, 5.01135378884635 ], [ 115.098159136634877, 5.011719797630576 ] ] ], [ [ [ 115.085912046703697, 5.042151131669414 ], [ 115.06505371975345, 5.044438570783484 ], [ 115.053954793379035, 5.046726001803563 ], [ 115.043621310575077, 5.046726001803563 ], [ 115.032139663314865, 5.043485471977021 ], [ 114.973750701034078, 5.024244491190359 ], [ 114.937870552783806, 5.014713145195515 ], [ 114.923817493782394, 5.005777381521 ], [ 114.904083412019872, 4.99326710769094 ], [ 114.882854324267669, 4.981650211388171 ], [ 114.854449206865411, 4.967352210336287 ], [ 114.800124418507153, 4.931159011679085 ], [ 114.764618021304727, 4.905558206146338 ], [ 114.69453960631779, 4.859008776334008 ], [ 114.652922370670922, 4.829122346019517 ], [ 114.639168313766731, 4.819290259537922 ], [ 114.633188288908514, 4.812437509183724 ], [ 114.628105268543322, 4.806776490043035 ], [ 114.621826242487145, 4.800221566372215 ], [ 114.613454207145992, 4.793666579748901 ], [ 114.606876179891856, 4.788303362110526 ], [ 114.601494157429443, 4.783536021770033 ], [ 114.597498065783157, 4.775846709458108 ], [ 114.596763240531232, 4.774138067717672 ], [ 114.59982501301397, 4.774626252099893 ], [ 114.603376669597651, 4.777555347601265 ], [ 114.606193500929407, 4.779874205430303 ], [ 114.608642918735768, 4.782315101260963 ], [ 114.61170469121862, 4.784145766613904 ], [ 114.61464399312581, 4.786098471767104 ], [ 114.616725998306265, 4.786342559461616 ], [ 114.617460824457567, 4.786342559461616 ], [ 114.61648105715517, 4.784267810910819 ], [ 114.615133876327377, 4.782925323644804 ], [ 114.613419283772942, 4.780728520005255 ], [ 114.612806929096564, 4.779386025544682 ], [ 114.612439516470545, 4.777799437993735 ], [ 114.612317045894997, 4.776212846845453 ], [ 114.610847395391033, 4.773527837239953 ], [ 114.608275506109749, 4.772063283194029 ], [ 114.605581146252916, 4.77084281774188 ], [ 114.603131727547293, 4.77035463156102 ], [ 114.601049722366838, 4.769622351390467 ], [ 114.596640769955684, 4.76742550548272 ], [ 114.590762166141076, 4.761445166761064 ], [ 114.592599230170435, 4.765594795163736 ], [ 114.595416060602815, 4.768645976330788 ], [ 114.591741933443586, 4.768523929335913 ], [ 114.588312748334715, 4.765594795163736 ], [ 114.582556615095768, 4.759492392360073 ], [ 114.580621354092273, 4.757752136751776 ], [ 114.564453884639079, 4.743953904249338 ], [ 114.556225370304674, 4.738232723161673 ], [ 114.551632710681133, 4.734990700460514 ], [ 114.544743722145085, 4.728506607394081 ], [ 114.539002898964668, 4.724692407228872 ], [ 114.531348466858276, 4.718971066961217 ], [ 114.523119952523871, 4.713631107589606 ], [ 114.462458581498367, 4.688075018147629 ], [ 114.398926797533704, 4.660801443931518 ], [ 114.318937986698757, 4.626851041142686 ], [ 114.251578986680897, 4.60510666883772 ], [ 114.218090848014299, 4.593852740711441 ], [ 114.20373878871419, 4.59041930360803 ], [ 114.195318913936831, 4.589847062292165 ], [ 114.191491697883635, 4.589847062292165 ], [ 114.183645905334288, 4.590037809397415 ], [ 114.18575087380384, 4.586985850316808 ], [ 114.18900400762891, 4.584124626650237 ], [ 114.194362109923532, 4.579355894159221 ], [ 114.197806604191442, 4.575922387808021 ], [ 114.198763408204741, 4.572870367573444 ], [ 114.195510274379672, 4.572488864369632 ], [ 114.191874419668807, 4.576113138510607 ], [ 114.188621285843737, 4.57992814356902 ], [ 114.184219987562415, 4.586413606302926 ], [ 114.180966854636722, 4.587748841435939 ], [ 114.171781536288904, 4.588321084550444 ], [ 114.163553021954499, 4.588321084550444 ], [ 114.094854497037431, 4.588511831655751 ], [ 114.079772365402391, 4.58777612416884 ], [ 114.082212345723292, 4.583295809653919 ], [ 114.08927544930259, 4.579583527857551 ], [ 114.103273235071811, 4.578303425662625 ], [ 114.115986820435523, 4.577663373665814 ], [ 114.12523306425453, 4.577535363266463 ], [ 114.135763508479158, 4.577023321669003 ], [ 114.144881332707428, 4.575615204578071 ], [ 114.154127576526548, 4.574079073490509 ], [ 114.16157593977789, 4.572158905808919 ], [ 114.167996942704804, 4.568958613449297 ], [ 114.174161105550638, 4.564862219515874 ], [ 114.181352628720902, 4.55769347257575 ], [ 114.186746270424123, 4.551292745763647 ], [ 114.192653593188879, 4.544763945599641 ], [ 114.1956072545712, 4.541051465053101 ], [ 114.198175655382215, 4.536314823070654 ], [ 114.2003587965213, 4.531962205991078 ], [ 114.204468237819015, 4.529913906501633 ], [ 114.218979704649655, 4.531322112625446 ], [ 114.225400706677306, 4.531194094132161 ], [ 114.232078549685411, 4.528505696780542 ], [ 114.239526912936753, 4.523000852107714 ], [ 114.247745796431445, 4.516471796536223 ], [ 114.25468047952063, 4.510710816850747 ], [ 114.267161303251555, 4.496700241822737 ], [ 114.275990182501005, 4.475295788969561 ], [ 114.279200683964405, 4.468494242415431 ], [ 114.282812497998407, 4.457691657044393 ], [ 114.284618405015408, 4.452690406637032 ], [ 114.286825624602898, 4.448289277428273 ], [ 114.291440720512924, 4.443488016458844 ], [ 114.296256472258506, 4.439486940769768 ], [ 114.300470255597929, 4.435285789307784 ], [ 114.310302415823912, 4.415079914206729 ], [ 114.314716854998892, 4.404876738670623 ], [ 114.315118167569494, 4.397274281083241 ], [ 114.312710291246958, 4.392872823621985 ], [ 114.309901103253424, 4.38587045036104 ], [ 114.30769388366582, 4.376867302284211 ], [ 114.307091914360399, 4.367263826164674 ], [ 114.310302415823912, 4.363062266410509 ], [ 114.315920792710472, 4.35986106213835 ], [ 114.320736545355317, 4.357260073493649 ], [ 114.32394704681883, 4.354258921611972 ], [ 114.325752953835831, 4.351457836510008 ], [ 114.326956891547411, 4.346856029881906 ], [ 114.3273582041179, 4.340653550520983 ], [ 114.322285933349235, 4.317151536014649 ], [ 114.31382048272917, 4.295924729842454 ], [ 114.310703882178473, 4.272012312418326 ], [ 114.31138769338736, 4.266504548546152 ], [ 114.314859349879157, 4.259160800730399 ], [ 114.321802662862638, 4.255383988979929 ], [ 114.337635519763467, 4.251869439323229 ], [ 114.35549022259579, 4.253797198182212 ], [ 114.365024127161746, 4.256911764466395 ], [ 114.370695156656211, 4.25855100462519 ], [ 114.379571550686592, 4.25994435574745 ], [ 114.390667043449412, 4.259534547281589 ], [ 114.399214682211891, 4.258059232847359 ], [ 114.406611677986575, 4.257321574730952 ], [ 114.414008672861996, 4.256665878127819 ], [ 114.41935094708856, 4.256338029376593 ], [ 114.425350731850813, 4.262649089284082 ], [ 114.4297067402739, 4.270271469552711 ], [ 114.434802448274468, 4.275844775116354 ], [ 114.441459743572409, 4.279041211182971 ], [ 114.44811703887035, 4.279123170897662 ], [ 114.452226481067328, 4.275189094701034 ], [ 114.452555236335115, 4.261501628097733 ], [ 114.451240215263738, 4.238470072336042 ], [ 114.453705880222287, 4.229372008911128 ], [ 114.460034420252327, 4.204290308251188 ], [ 114.471376479241144, 4.17961765163335 ], [ 114.492642840294934, 4.139866198066613 ], [ 114.499192263712075, 4.138457261693304 ], [ 114.503686965581096, 4.138713432678799 ], [ 114.508181667450003, 4.140762792468934 ], [ 114.513703729643453, 4.141018962555108 ], [ 114.518968951755824, 4.13858534763574 ], [ 114.525389954682737, 4.132949578760076 ], [ 114.535406718745094, 4.12347115157246 ], [ 114.54131404150985, 4.116298211992955 ], [ 114.544781383054442, 4.107203856472836 ], [ 114.544909802645293, 4.101183592348946 ], [ 114.547735044436763, 4.095035190121962 ], [ 114.550817125410049, 4.090295764737789 ], [ 114.556467608093726, 4.081969679357258 ], [ 114.561732830205983, 4.073131126100634 ], [ 114.567254892399433, 4.067238702404268 ], [ 114.584206339550974, 4.053788444581073 ], [ 114.594479943694523, 4.047511580495097 ], [ 114.601157786702515, 4.044309080299854 ], [ 114.611688230927143, 4.041747070970587 ], [ 114.614641892309578, 4.036751129261233 ], [ 114.616825033448549, 4.033676688928097 ], [ 114.618879754097406, 4.029705518395019 ], [ 114.619650274340756, 4.025734328976171 ], [ 114.619521854749905, 4.019201040295798 ], [ 114.617852393772978, 4.015870323756474 ], [ 114.613871372066228, 4.011770961161005 ], [ 114.611945071008336, 4.008440214944017 ], [ 114.611688230927143, 4.004597028729961 ], [ 114.61207349149845, 4.0021630010217 ], [ 114.650085827998623, 4.001394359462154 ], [ 114.66562465425443, 4.008184002589701 ], [ 114.689510784495155, 4.022659847274156 ], [ 114.708645372785782, 4.035982520077312 ], [ 114.721615798230573, 4.05250745565462 ], [ 114.73317360277963, 4.067110605669939 ], [ 114.7464008683055, 4.082225868329203 ], [ 114.757958673753819, 4.092473342670701 ], [ 114.774139600662124, 4.105666772103916 ], [ 114.787366866187995, 4.121934097780411 ], [ 114.795585749682687, 4.135895553636942 ], [ 114.800594131713865, 4.144989580904507 ], [ 114.803290953015107, 4.14960059659029 ], [ 114.804960413092658, 4.153058841492395 ], [ 114.805602513745043, 4.155876658481077 ], [ 114.803804633177378, 4.158438301786248 ], [ 114.800594131713865, 4.158950629368121 ], [ 114.798539411065008, 4.159462956949938 ], [ 114.796356269925923, 4.160487611214307 ], [ 114.79365944862468, 4.162152670009789 ], [ 114.792632088300252, 4.163945807553034 ], [ 114.793787869114908, 4.167275908056752 ], [ 114.796741529597966, 4.172014873887349 ], [ 114.808130783209094, 4.189977854194638 ], [ 114.815755723847587, 4.198983203811849 ], [ 114.820571476492546, 4.207187987735495 ], [ 114.825788540808617, 4.214592230247263 ], [ 114.830202979983596, 4.222796849594999 ], [ 114.833614138182043, 4.229200393983035 ], [ 114.837225952215931, 4.236004102507366 ], [ 114.839633828538467, 4.240806684580889 ], [ 114.842041703961513, 4.246209553328299 ], [ 114.844850892854538, 4.252012592507185 ], [ 114.847860737583005, 4.258015690371849 ], [ 114.85046927064036, 4.263218337656212 ], [ 114.852275177657361, 4.268220849812394 ], [ 114.85388042793943, 4.271822638204242 ], [ 114.854883709815454, 4.275224311252998 ], [ 114.853479115368941, 4.276825093703167 ], [ 114.85046927064036, 4.27562450776486 ], [ 114.84725876917696, 4.272222835615423 ], [ 114.844650236119605, 4.269821646651735 ], [ 114.841640391391024, 4.268420948967673 ], [ 114.838630546662444, 4.266219848367371 ], [ 114.834216107487464, 4.263818640517911 ], [ 114.828798386436461, 4.260617018060998 ], [ 114.826189853379105, 4.259216304189124 ], [ 114.822176726774615, 4.258215793124407 ], [ 114.819969507187125, 4.260617018060998 ], [ 114.820370819757613, 4.264418943379553 ], [ 114.821574758368456, 4.267820649703253 ], [ 114.824985915667526, 4.272823132181827 ], [ 114.831406918594439, 4.279426358439764 ], [ 114.836022014504465, 4.284828955591877 ], [ 114.841239078820536, 4.293833199942299 ], [ 114.851472551617007, 4.308239768950216 ], [ 114.856689616832455, 4.318444257496537 ], [ 114.862508650453947, 4.329849110747887 ], [ 114.86792637150495, 4.339252984137943 ], [ 114.871738842273771, 4.348056503404962 ], [ 114.874347374431863, 4.356659844376338 ], [ 114.877156563324775, 4.376067018078459 ], [ 114.879163126177446, 4.390271949191174 ], [ 114.880348122367991, 4.40459312847014 ], [ 114.881087821945471, 4.416311328005406 ], [ 114.880923443861889, 4.423686323664981 ], [ 114.877635890284182, 4.426472414370494 ], [ 114.868595119069596, 4.427947398753474 ], [ 114.848109552114238, 4.431460719036977 ], [ 114.841560128697097, 4.434277508999912 ], [ 114.836166486993875, 4.443239950163616 ], [ 114.835267546260297, 4.451690151879063 ], [ 114.834240185935869, 4.46372512051795 ], [ 114.835524386341376, 4.540795430764547 ], [ 114.836022014504465, 4.586312024280517 ], [ 114.828196417131039, 4.63631372659728 ], [ 114.821775414204012, 4.66131325350392 ], [ 114.817360975029032, 4.667712989263066 ], [ 114.818163600170124, 4.677712460261887 ], [ 114.818364256904943, 4.683712074152936 ], [ 114.815555068012031, 4.689111682857913 ], [ 114.810137346961028, 4.695111198722884 ], [ 114.804920281745694, 4.701910587803411 ], [ 114.800104530000112, 4.707710014405677 ], [ 114.7954894340902, 4.714509280279117 ], [ 114.795088121519598, 4.71870879407561 ], [ 114.795690090825133, 4.72170843059962 ], [ 114.795690090825133, 4.725507952030398 ], [ 114.79328221450271, 4.729707399277117 ], [ 114.790874339079551, 4.732906960487867 ], [ 114.804518969175092, 4.735506592954948 ], [ 114.817962944334454, 4.739905949599915 ], [ 114.836022014504465, 4.745705057842201 ], [ 114.843245642572356, 4.7571031643796 ], [ 114.846456143136606, 4.762702165372673 ], [ 114.846857456606358, 4.767301310007497 ], [ 114.846656799871425, 4.773300148682949 ], [ 114.846656799871425, 4.778899016576418 ], [ 114.846857456606358, 4.783897968316637 ], [ 114.850067957170495, 4.789896661301952 ], [ 114.854482397244851, 4.794295669909275 ], [ 114.860702743436946, 4.797894836777346 ], [ 114.868227355707972, 4.802593721622998 ], [ 114.88264952975203, 4.81196640022921 ], [ 114.889233566276175, 4.813840920122402 ], [ 114.906790995508118, 4.814465759187499 ], [ 114.917764389115291, 4.814465759187499 ], [ 114.929364833220575, 4.813840920122402 ], [ 114.936889445491602, 4.812591240193626 ], [ 114.949743992391404, 4.810404295821627 ], [ 114.957895656059691, 4.810404295821627 ], [ 114.967301421623347, 4.812591240193626 ], [ 114.977020712436001, 4.819152032840066 ], [ 114.980783019021146, 4.828836894906829 ], [ 114.98423179945803, 4.838521620276595 ], [ 114.989561734086806, 4.863513816809245 ], [ 114.993951091169947, 4.876946739300649 ], [ 115.001162178191976, 4.888192700332922 ], [ 115.009940892358372, 4.896002285277291 ], [ 115.018719607424032, 4.902562264936648 ], [ 115.024049541153431, 4.906935549336197 ], [ 115.023422490655435, 4.911308805856777 ], [ 115.024049541153431, 4.917243892491683 ], [ 115.018092556026659, 4.920055230764319 ], [ 115.009627367109374, 4.917243892491683 ], [ 115.007119163318748, 4.912558302323816 ], [ 115.003983908130863, 4.910059306691721 ], [ 114.999594550148458, 4.906623173420769 ], [ 114.994578141667944, 4.9038117775915 ], [ 114.990815835982062, 4.900687991457687 ], [ 114.98642647889892, 4.896939429211329 ], [ 114.982037120916402, 4.893503227591907 ], [ 114.977961289082259, 4.889754624876105 ], [ 114.974826033894374, 4.886006000576515 ], [ 114.971063728208605, 4.881320190974066 ], [ 114.967928472121343, 4.878821079329384 ], [ 114.963225589789204, 4.876321957792186 ], [ 114.959149757955061, 4.875384785079802 ], [ 114.956014502767175, 4.877883910214337 ], [ 114.952252196181917, 4.882569743199156 ], [ 114.94472758391089, 4.886943158899726 ], [ 114.937830022137859, 4.88475645464672 ], [ 114.933440665054718, 4.881007802468162 ], [ 114.925602526635316, 4.874135219364916 ], [ 114.919645541508544, 4.869136933123002 ], [ 114.914315607779145, 4.865388193710203 ], [ 114.908045097403374, 4.862889022710306 ], [ 114.901461061778605, 4.858515451426968 ], [ 114.892995871961944, 4.854141851365398 ], [ 114.887979464380805, 4.85289224608033 ], [ 114.899579908486089, 4.861639433612993 ], [ 114.906477470259119, 4.86695017131342 ], [ 114.912434454486515, 4.871636080740586 ], [ 114.923721373342801, 4.88194496798593 ], [ 114.928424256574203, 4.886318387283779 ], [ 114.932813613657459, 4.891941312041979 ], [ 114.937202971639863, 4.896939429211329 ], [ 114.940024700679487, 4.898188951758755 ], [ 114.94598168580626, 4.897564190934702 ], [ 114.951625145684034, 4.894440375123281 ], [ 114.956641553265172, 4.89256607916127 ], [ 114.967614946872345, 4.893815610701893 ], [ 114.980469493772148, 4.902874643550035 ], [ 114.986740004147919, 4.908497429812599 ], [ 114.995832244462576, 4.914744914845983 ], [ 115.001475703440974, 4.919118119205905 ], [ 115.009627367109374, 4.925365504414572 ], [ 115.015584352236147, 4.931612831167286 ], [ 115.022168387860916, 4.940671350502498 ], [ 115.028125372987688, 4.950979169353218 ], [ 115.037844664699605, 4.960662126655848 ], [ 115.043801648927001, 4.968470859042952 ], [ 115.044115175075376, 4.973468398847558 ], [ 115.042234021782747, 4.979402928802187 ], [ 115.039725817992121, 4.983775705984101 ], [ 115.038158189948604, 4.986899100912808 ], [ 115.042547547031745, 4.993770516696031 ], [ 115.03941229184386, 4.99876786404576 ], [ 115.036349601153233, 5.001166480049051 ], [ 115.040750899434556, 5.00364469504666 ], [ 115.049936216882998, 5.003263431961841 ], [ 115.055102958734665, 5.001929008916704 ], [ 115.059886978801046, 5.00364469504666 ], [ 115.065245080196405, 5.012223058247571 ], [ 115.069646378477614, 5.018895040373877 ], [ 115.075961284785535, 5.026710704735308 ], [ 115.084572520905226, 5.033763784471148 ], [ 115.101412270459946, 5.037004362861126 ], [ 115.116721133773353, 5.037385607060173 ], [ 115.131647276200852, 5.038910578460502 ], [ 115.137196738938428, 5.042151131669414 ], [ 115.129350946389081, 5.044057331081035 ], [ 115.109066702566338, 5.041769891067645 ], [ 115.097010972178737, 5.041579269867441 ], [ 115.085912046703697, 5.042151131669414 ] ] ] ] } }
]
}
